[{"OBJECT_NAME":"STARLINK-4425","OBJECT_ID":"2022-084V","EPOCH":"2026-03-09T18:15:24.103296","MEAN_MOTION":15.01258882,"ECCENTRICITY":0.00031475,"INCLINATION":97.6029,"RA_OF_ASC_NODE":130.2739,"ARG_OF_PERICENTER":84.2116,"MEAN_ANOMALY":275.9467,"EPHEMERIS_TYPE":0,"CLASSIFICATION_TYPE":"U","NORAD_CAT_ID":53208,"ELEMENT_SET_NO":999,"REV_AT_EPOCH":19932,"BSTAR":-1.5268226e-5,"MEAN_MOTION_DOT":-2.54e-6,"MEAN_MOTION_DDOT":0},{"OBJECT_NAME":"CZ-6A DEB","OBJECT_ID":"2022-151KB","EPOCH":"2026-03-09T19:20:41.637408","MEAN_MOTION":14.94061736,"ECCENTRICITY":0.0071589,"INCLINATION":98.7004,"RA_OF_ASC_NODE":166.2159,"ARG_OF_PERICENTER":166.3306,"MEAN_ANOMALY":193.9872,"EPHEMERIS_TYPE":0,"CLASSIFICATION_TYPE":"U","NORAD_CAT_ID":54523,"ELEMENT_SET_NO":999,"REV_AT_EPOCH":17710,"BSTAR":0.0044467837,"MEAN_MOTION_DOT":0.00050189,"MEAN_MOTION_DDOT":0}]
